{
    "links": {
        "self": "http://www.neowsapp.com/rest/v1/neo/3760535?api_key=iIulBulltgU6a56xZRHN4H3l9WmuAYTsLGpBGhQ2"
    },
    "id": "3760535",
    "neo_reference_id": "3760535",
    "name": "(2016 TX17)",
    "designation": "2016 TX17",
    "nasa_jpl_url": "http://ssd.jpl.nasa.gov/sbdb.cgi?sstr=3760535",
    "absolute_magnitude_h": 23.5,
    "estimated_diameter": {
        "kilometers": {
            "estimated_diameter_min": 0.0530340723,
            "estimated_diameter_max": 0.1185877909
        },
        "meters": {
            "estimated_diameter_min": 53.0340723319,
            "estimated_diameter_max": 118.5877908577
        },
        "miles": {
            "estimated_diameter_min": 0.0329538346,
            "estimated_diameter_max": 0.0736870142
        },
        "feet": {
            "estimated_diameter_min": 173.9963058693,
            "estimated_diameter_max": 389.0675677576
        }
    },
    "is_potentially_hazardous_asteroid": false,
    "close_approach_data": [
        {
            "close_approach_date": "2016-10-13",
            "close_approach_date_full": "2016-Oct-13 23:44",
            "epoch_date_close_approach": 1476402240000,
            "relative_velocity": {
                "kilometers_per_second": "17.4100741621",
                "kilometers_per_hour": "62676.2669834473",
                "miles_per_hour": "38944.5948931315"
            },
            "miss_distance": {
                "astronomical": "0.0413208418",
                "lunar": "16.0738074602",
                "kilometers": "6181509.919886966",
                "miles": "3841012.1541174908"
            },
            "orbiting_body": "Earth"
        }
    ],
    "orbital_data": {
        "orbit_id": "7",
        "orbit_determination_date": "2019-12-04 07:15:43",
        "first_observation_date": "2016-10-06",
        "last_observation_date": "2016-10-13",
        "data_arc_in_days": 7,
        "observations_used": 36,
        "orbit_uncertainty": "9",
        "minimum_orbit_intersection": ".010544",
        "jupiter_tisserand_invariant": "3.776",
        "epoch_osculation": "2457669.5",
        "eccentricity": ".5939229623807336",
        "semi_major_axis": "1.832468989915662",
        "inclination": "11.26694707009572",
        "ascending_node_longitude": "206.4679182602554",
        "orbital_period": "906.0525309731939",
        "perihelion_distance": ".7441235789541214",
        "perihelion_argument": "247.9642689101378",
        "aphelion_distance": "2.920814400877203",
        "perihelion_time": "2457720.917834119055",
        "mean_anomaly": "339.5702570766204",
        "mean_motion": ".3973279558231826",
        "equinox": "J2000",
        "orbit_class": {
            "orbit_class_type": "APO",
            "orbit_class_description": "Near-Earth asteroid orbits which cross the Earth’s orbit similar to that of 1862 Apollo",
            "orbit_class_range": "a (semi-major axis) > 1.0 AU; q (perihelion) < 1.017 AU"
        }
    },
    "is_sentry_object": false
}